{
    "links": {
        "self": "http://www.neowsapp.com/rest/v1/neo/3826622?api_key=iIulBulltgU6a56xZRHN4H3l9WmuAYTsLGpBGhQ2"
    },
    "id": "3826622",
    "neo_reference_id": "3826622",
    "name": "(2018 PU7)",
    "designation": "2018 PU7",
    "nasa_jpl_url": "http://ssd.jpl.nasa.gov/sbdb.cgi?sstr=3826622",
    "absolute_magnitude_h": 23.4,
    "estimated_diameter": {
        "kilometers": {
            "estimated_diameter_min": 0.0555334912,
            "estimated_diameter_max": 0.1241766613
        },
        "meters": {
            "estimated_diameter_min": 55.5334911581,
            "estimated_diameter_max": 124.1766612574
        },
        "miles": {
            "estimated_diameter_min": 0.0345069009,
            "estimated_diameter_max": 0.0771597762
        },
        "feet": {
            "estimated_diameter_min": 182.1964991311,
            "estimated_diameter_max": 407.4037573197
        }
    },
    "is_potentially_hazardous_asteroid": false,
    "close_approach_data": [
        {
            "close_approach_date": "2013-09-20",
            "close_approach_date_full": "2013-Sep-20 16:37",
            "epoch_date_close_approach": 1379695020000,
            "relative_velocity": {
                "kilometers_per_second": "2.5817750832",
                "kilometers_per_hour": "9294.3902993517",
                "miles_per_hour": "5775.1726835055"
            },
            "miss_distance": {
                "astronomical": "1.847656048",
                "lunar": "718.738202672",
                "kilometers": "276405409.27341776",
                "miles": "171750357.152614688"
            },
            "orbiting_body": "Juptr"
        },
        {
            "close_approach_date": "2018-07-31",
            "close_approach_date_full": "2018-Jul-31 01:35",
            "epoch_date_close_approach": 1533000900000,
            "relative_velocity": {
                "kilometers_per_second": "10.3948961421",
                "kilometers_per_hour": "37421.6261116471",
                "miles_per_hour": "23252.3431803176"
            },
            "miss_distance": {
                "astronomical": "0.0361305854",
                "lunar": "14.0547977206",
                "kilometers": "5405058.617693098",
                "miles": "3358547.6871088324"
            },
            "orbiting_body": "Earth"
        },
        {
            "close_approach_date": "2034-05-05",
            "close_approach_date_full": "2034-May-05 22:24",
            "epoch_date_close_approach": 2030480640000,
            "relative_velocity": {
                "kilometers_per_second": "17.27805875",
                "kilometers_per_hour": "62201.011500041",
                "miles_per_hour": "38649.2896179005"
            },
            "miss_distance": {
                "astronomical": "0.3154158777",
                "lunar": "122.6967764253",
                "kilometers": "47185543.468100499",
                "miles": "29319737.1368009262"
            },
            "orbiting_body": "Earth"
        }
    ],
    "orbital_data": {
        "orbit_id": "12",
        "orbit_determination_date": "2018-09-14 07:25:33",
        "first_observation_date": "2018-08-06",
        "last_observation_date": "2018-09-11",
        "data_arc_in_days": 36,
        "observations_used": 98,
        "orbit_uncertainty": "6",
        "minimum_orbit_intersection": ".0154894",
        "jupiter_tisserand_invariant": "3.482",
        "epoch_osculation": "2459000.5",
        "eccentricity": ".5417646019910121",
        "semi_major_axis": "2.162936362327292",
        "inclination": "6.906658894320464",
        "ascending_node_longitude": "307.2972472832773",
        "orbital_period": "1161.887393598059",
        "perihelion_distance": ".9911340048591591",
        "perihelion_argument": "329.2769779842671",
        "aphelion_distance": "3.334738719795425",
        "perihelion_time": "2459468.083116348407",
        "mean_anomaly": "215.1237212720304",
        "mean_motion": ".3098406971136634",
        "equinox": "J2000",
        "orbit_class": {
            "orbit_class_type": "APO",
            "orbit_class_description": "Near-Earth asteroid orbits which cross the Earth’s orbit similar to that of 1862 Apollo",
            "orbit_class_range": "a (semi-major axis) > 1.0 AU; q (perihelion) < 1.017 AU"
        }
    },
    "is_sentry_object": false
}